start=new Date('2021-10-27T00:00:00.000Z').valueOf();
sats=[{"LAUNCH_DATE":"2021-05-04","RCS_SIZE":"LARGE","TIME_SYSTEM":"UTC","PERIOD":"95.592","REF_FRAME":"TEME","MEAN_MOTION_DOT":"-0.00000025","MEAN_MOTION":"15.06401318","PERIAPSIS":"546.403","EPHEMERIS_TYPE":"0","GP_ID":"188203227","OBJECT_ID":"2021-038AA","ARG_OF_PERICENTER":"90.9568","NORAD_CAT_ID":"48377","TLE_LINE2":"2 48377  53.0559 313.3189 0001165  90.9568 269.1554 15.06401318 27309","OBJECT_NAME":"STARLINK-2499","MEAN_ELEMENT_THEORY":"SGP4","SITE":"AFETR","ECCENTRICITY":"0.00011650","CLASSIFICATION_TYPE":"U","EPOCH":"2021-10-26T08:40:57.779040","MEAN_ANOMALY":"269.1554","RA_OF_ASC_NODE":"313.3189","COUNTRY_CODE":"US","DECAY_DATE":null,"OBJECT_TYPE":"PAYLOAD","CENTER_NAME":"EARTH","TLE_LINE1":"1 48377U 21038AA  21299.36177985 -.00000025  00000-0  17226-4 0  9992","BSTAR":"0.00001722600000","SEMIMAJOR_AXIS":"6925.345","REV_AT_EPOCH":"2730","FILE":"3185047","MEAN_MOTION_DDOT":"0.0000000000000","INCLINATION":"53.0559","APOAPSIS":"548.016","ELEMENT_SET_NO":"999"},{"NORAD_CAT_ID":"48378","ARG_OF_PERICENTER":"83.3453","OBJECT_ID":"2021-038AB","GP_ID":"188203226","PERIAPSIS":"546.298","EPHEMERIS_TYPE":"0","MEAN_MOTION":"15.06403953","MEAN_MOTION_DOT":"0.00001230","PERIOD":"95.592","REF_FRAME":"TEME","LAUNCH_DATE":"2021-05-04","RCS_SIZE":"LARGE","TIME_SYSTEM":"UTC","APOAPSIS":"548.105","ELEMENT_SET_NO":"999","INCLINATION":"53.0559","FILE":"3185047","MEAN_MOTION_DDOT":"0.0000000000000","REV_AT_EPOCH":"2731","BSTAR":"0.00010146000000","SEMIMAJOR_AXIS":"6925.336","TLE_LINE1":"1 48378U 21038AB  21299.42443086  .00001230  00000-0  10146-3 0  9999","OBJECT_TYPE":"PAYLOAD","CENTER_NAME":"EARTH","COUNTRY_CODE":"US","DECAY_DATE":null,"RA_OF_ASC_NODE":"313.0448","MEAN_ANOMALY":"276.7685","MEAN_ELEMENT_THEORY":"SGP4","SITE":"AFETR","ECCENTRICITY":"0.00013050","CLASSIFICATION_TYPE":"U","EPOCH":"2021-10-26T10:11:10.826304","OBJECT_NAME":"STARLINK-2526","TLE_LINE2":"2 48378  53.0559 313.0448 0001305  83.3453 276.7685 15.06403953 27317"},{"INCLINATION":"53.0550","FILE":"3185051","MEAN_MOTION_DDOT":"0.0000000000000","REV_AT_EPOCH":"2731","APOAPSIS":"548.892","ELEMENT_SET_NO":"999","COUNTRY_CODE":"US","DECAY_DATE":null,"OBJECT_TYPE":"PAYLOAD","CENTER_NAME":"EARTH","TLE_LINE1":"1 48379U 21038AC  21299.42075932  .00019713  00000-0  13421-2 0  9994","SEMIMAJOR_AXIS":"6925.645","BSTAR":"0.00134210000000","MEAN_ANOMALY":"285.9666","RA_OF_ASC_NODE":"313.0634","TLE_LINE2":"2 48379  53.0550 313.0634 0001995  74.1543 285.9666 15.06303215 27310","OBJECT_NAME":"STARLINK-2612","MEAN_ELEMENT_THEORY":"SGP4","SITE":"AFETR","ECCENTRICITY":"0.00019950","CLASSIFICATION_TYPE":"U","EPOCH":"2021-10-26T10:05:53.605248","GP_ID":"188203293","OBJECT_ID":"2021-038AC","ARG_OF_PERICENTER":"74.1543","NORAD_CAT_ID":"48379","PERIAPSIS":"546.129","EPHEMERIS_TYPE":"0","PERIOD":"95.598","REF_FRAME":"TEME","MEAN_MOTION_DOT":"0.00019713","MEAN_MOTION":"15.06303215","LAUNCH_DATE":"2021-05-04","TIME_SYSTEM":"UTC","RCS_SIZE":"MEDIUM"},{"LAUNCH_DATE":"2021-05-04","RCS_SIZE":"LARGE","TIME_SYSTEM":"UTC","MEAN_MOTION":"15.06402924","MEAN_MOTION_DOT":"0.00001891","PERIOD":"95.592","REF_FRAME":"TEME","PERIAPSIS":"546.369","EPHEMERIS_TYPE":"0","ARG_OF_PERICENTER":"72.4811","OBJECT_ID":"2021-038AD","NORAD_CAT_ID":"48380","GP_ID":"188200062","SITE":"AFETR","MEAN_ELEMENT_THEORY":"SGP4","CLASSIFICATION_TYPE":"U","EPOCH":"2021-10-26T10:41:39.967008","ECCENTRICITY":"0.00012060","OBJECT_NAME":"STARLINK-2614","TLE_LINE2":"2 48380  53.0551 312.9385 0001206  72.4811 287.6309 15.06402924 26722","RA_OF_ASC_NODE":"312.9385","MEAN_ANOMALY":"287.6309","SEMIMAJOR_AXIS":"6925.340","BSTAR":"0.00014576000000","TLE_LINE1":"1 48380U 21038AD  21299.44560147  .00001891  00000-0  14576-3 0  9996","OBJECT_TYPE":"PAYLOAD","CENTER_NAME":"EARTH","DECAY_DATE":null,"COUNTRY_CODE":"US","APOAPSIS":"548.040","ELEMENT_SET_NO":"999","MEAN_MOTION_DDOT":"0.0000000000000","FILE":"3184921","REV_AT_EPOCH":"2672","INCLINATION":"53.0551"},{"LAUNCH_DATE":"2021-05-04","TIME_SYSTEM":"UTC","RCS_SIZE":"LARGE","REF_FRAME":"TEME","PERIOD":"95.594","MEAN_MOTION_DOT":"0.00005215","MEAN_MOTION":"15.06378101","PERIAPSIS":"546.331","EPHEMERIS_TYPE":"0","GP_ID":"188203268","ARG_OF_PERICENTER":"85.4210","OBJECT_ID":"2021-038AE","NORAD_CAT_ID":"48381","TLE_LINE2":"2 48381  53.0584 313.0691 0001371  85.4210 274.6935 15.06378101 27317","OBJECT_NAME":"STARLINK-2630","SITE":"AFETR","MEAN_ELEMENT_THEORY":"SGP4","CLASSIFICATION_TYPE":"U","ECCENTRICITY":"0.00013710","EPOCH":"2021-10-26T10:00:34.752960","MEAN_ANOMALY":"274.6935","RA_OF_ASC_NODE":"313.0691","DECAY_DATE":null,"COUNTRY_CODE":"US","OBJECT_TYPE":"PAYLOAD","CENTER_NAME":"EARTH","TLE_LINE1":"1 48381U 21038AE  21299.41706890  .00005215  00000-0  36892-3 0  9990","BSTAR":"0.00036892000000","SEMIMAJOR_AXIS":"6925.416","MEAN_MOTION_DDOT":"0.0000000000000","FILE":"3185049","REV_AT_EPOCH":"2731","INCLINATION":"53.0584","APOAPSIS":"548.230","ELEMENT_SET_NO":"999"},{"LAUNCH_DATE":"2021-05-04","RCS_SIZE":"LARGE","TIME_SYSTEM":"UTC","PERIOD":"95.592","REF_FRAME":"TEME","MEAN_MOTION":"15.06401775","MEAN_MOTION_DOT":"-0.00000339","PERIAPSIS":"546.164","EPHEMERIS_TYPE":"0","GP_ID":"188200065","NORAD_CAT_ID":"48382","ARG_OF_PERICENTER":"77.6101","OBJECT_ID":"2021-038AF","TLE_LINE2":"2 48382  53.0558 313.0862 0001508  77.6101 282.5057 15.06401775 26724","SITE":"AFETR","MEAN_ELEMENT_THEORY":"SGP4","CLASSIFICATION_TYPE":"U","ECCENTRICITY":"0.00015080","EPOCH":"2021-10-26T09:55:16.127904","OBJECT_NAME":"STARLINK-2585","RA_OF_ASC_NODE":"313.0862","MEAN_ANOMALY":"282.5057","OBJECT_TYPE":"PAYLOAD","CENTER_NAME":"EARTH","DECAY_DATE":null,"COUNTRY_CODE":"US","BSTAR":"-0.00000384720000","SEMIMAJOR_AXIS":"6925.343","TLE_LINE1":"1 48382U 21038AF  21299.41338111 -.00000339  00000-0 -38472-5 0  9990","REV_AT_EPOCH":"2672","FILE":"3184921","MEAN_MOTION_DDOT":"0.0000000000000","INCLINATION":"53.0558","APOAPSIS":"548.252","ELEMENT_SET_NO":"999"},{"MEAN_MOTION_DOT":"-0.00000498","MEAN_MOTION":"15.06415191","PERIOD":"95.591","REF_FRAME":"TEME","LAUNCH_DATE":"2021-05-04","RCS_SIZE":"LARGE","TIME_SYSTEM":"UTC","OBJECT_ID":"2021-038AG","ARG_OF_PERICENTER":"74.6407","NORAD_CAT_ID":"48383","GP_ID":"188199816","PERIAPSIS":"546.333","EPHEMERIS_TYPE":"0","MEAN_ANOMALY":"285.4715","RA_OF_ASC_NODE":"313.1029","OBJECT_NAME":"STARLINK-2599","SITE":"AFETR","MEAN_ELEMENT_THEORY":"SGP4","CLASSIFICATION_TYPE":"U","EPOCH":"2021-10-26T09:49:55.979616","ECCENTRICITY":"0.00012050","TLE_LINE2":"2 48383  53.0524 313.1029 0001205  74.6407 285.4715 15.06415191 27949","APOAPSIS":"548.001","ELEMENT_SET_NO":"999","REV_AT_EPOCH":"2794","FILE":"3184921","MEAN_MOTION_DDOT":"0.0000000000000","INCLINATION":"53.0524","TLE_LINE1":"1 48383U 21038AG  21299.40967569 -.00000498  00000-0 -14540-4 0  9990","SEMIMAJOR_AXIS":"6925.302","BSTAR":"-0.00001454000000","COUNTRY_CODE":"US","DECAY_DATE":null,"OBJECT_TYPE":"PAYLOAD","CENTER_NAME":"EARTH"},{"LAUNCH_DATE":"2021-05-04","TIME_SYSTEM":"UTC","RCS_SIZE":"LARGE","MEAN_MOTION":"15.06401943","MEAN_MOTION_DOT":"-0.00000236","REF_FRAME":"TEME","PERIOD":"95.592","PERIAPSIS":"546.294","EPHEMERIS_TYPE":"0","NORAD_CAT_ID":"48384","OBJECT_ID":"2021-038AH","ARG_OF_PERICENTER":"75.9586","GP_ID":"188200562","SITE":"AFETR","MEAN_ELEMENT_THEORY":"SGP4","ECCENTRICITY":"0.00013190","CLASSIFICATION_TYPE":"U","EPOCH":"2021-10-26T09:44:38.938272","OBJECT_NAME":"STARLINK-2601","TLE_LINE2":"2 48384  53.0538 313.1121 0001319  75.9586 284.1550 15.06401943 27949","RA_OF_ASC_NODE":"313.1121","MEAN_ANOMALY":"284.1550","SEMIMAJOR_AXIS":"6925.343","BSTAR":"0.00000301810000","TLE_LINE1":"1 48384U 21038AH  21299.40600623 -.00000236  00000-0  30181-5 0  9995","OBJECT_TYPE":"PAYLOAD","CENTER_NAME":"EARTH","DECAY_DATE":null,"COUNTRY_CODE":"US","APOAPSIS":"548.121","ELEMENT_SET_NO":"999","INCLINATION":"53.0538","FILE":"3184921","MEAN_MOTION_DDOT":"0.0000000000000","REV_AT_EPOCH":"2794"},{"COUNTRY_CODE":"US","DECAY_DATE":null,"OBJECT_TYPE":"PAYLOAD","CENTER_NAME":"EARTH","TLE_LINE1":"1 48385U 21038AJ  21299.33596040  .00001160  00000-0  96723-4 0  9994","SEMIMAJOR_AXIS":"6925.340","BSTAR":"0.00009672300000","FILE":"3184921","INCLINATION":"53.0552","MEAN_MOTION_DDOT":"0.0000000000000","REV_AT_EPOCH":"2793","APOAPSIS":"548.017","ELEMENT_SET_NO":"999","TLE_LINE2":"2 48385  53.0552 313.4283 0001172  85.3930 274.7193 15.06402705 27937","OBJECT_NAME":"STARLINK-2598","SITE":"AFETR","MEAN_ELEMENT_THEORY":"SGP4","CLASSIFICATION_TYPE":"U","EPOCH":"2021-10-26T08:03:46.978560","ECCENTRICITY":"0.00011720","MEAN_ANOMALY":"274.7193","RA_OF_ASC_NODE":"313.4283","PERIAPSIS":"546.394","EPHEMERIS_TYPE":"0","GP_ID":"188199314","ARG_OF_PERICENTER":"85.3930","OBJECT_ID":"2021-038AJ","NORAD_CAT_ID":"48385","LAUNCH_DATE":"2021-05-04","RCS_SIZE":"LARGE","TIME_SYSTEM":"UTC","REF_FRAME":"TEME","PERIOD":"95.592","MEAN_MOTION_DOT":"0.00001160","MEAN_MOTION":"15.06402705"},{"PERIOD":"95.592","REF_FRAME":"TEME","MEAN_MOTION":"15.06400966","MEAN_MOTION_DOT":"0.00001658","LAUNCH_DATE":"2021-05-04","TIME_SYSTEM":"UTC","RCS_SIZE":"LARGE","GP_ID":"188199566","OBJECT_ID":"2021-038AK","ARG_OF_PERICENTER":"76.2265","NORAD_CAT_ID":"48386","PERIAPSIS":"546.393","EPHEMERIS_TYPE":"0","RA_OF_ASC_NODE":"308.4946","MEAN_ANOMALY":"283.8855","TLE_LINE2":"2 48386  53.0566 308.4946 0001180  76.2265 283.8855 15.06400966 26776","MEAN_ELEMENT_THEORY":"SGP4","SITE":"AFETR","EPOCH":"2021-10-26T07:44:30.635520","CLASSIFICATION_TYPE":"U","ECCENTRICITY":"0.00011800","OBJECT_NAME":"STARLINK-2606","MEAN_MOTION_DDOT":"0.0000000000000","FILE":"3184921","INCLINATION":"53.0566","REV_AT_EPOCH":"2677","APOAPSIS":"548.028","ELEMENT_SET_NO":"999","OBJECT_TYPE":"PAYLOAD","CENTER_NAME":"EARTH","COUNTRY_CODE":"US","DECAY_DATE":null,"SEMIMAJOR_AXIS":"6925.346","BSTAR":"0.00013018000000","TLE_LINE1":"1 48386U 21038AK  21299.32257680  .00001658  00000-0  13018-3 0  9995"}];
